IRIDIUM 144             
1 43249U 18030A   23251.05215907  .00000381  00000+0  12909-3 0  9991
2 43249  86.4029 353.8388 0002107  87.6761 272.4676 14.34222412284942
IRIDIUM 149             
1 43250U 18030B   23250.70967079  .00000097  00000+0  27659-4 0  9991
2 43250  86.4029 353.9598 0002048  88.9367 271.2063 14.34216126284894
IRIDIUM 157             
1 43251U 18030C   23250.72869834  .00000358  00000+0  12084-3 0  9999
2 43251  86.4033 353.9825 0002221  98.9404 261.2043 14.34215909284872
IRIDIUM 140             
1 43252U 18030D   23251.37563983  .00000364  00000+0  12293-3 0  9997
2 43252  86.4029 353.7275 0002270  86.3862 273.7593 14.34223336285027
IRIDIUM 145             
1 43253U 18030E   23251.36295547  .00000407  00000+0  13843-3 0  9995
2 43253  86.4026 353.7071 0001904  84.9464 275.1949 14.34214439284950
IRIDIUM 146             
1 43254U 18030F   23250.85554908  .00000032  00000+0  42159-5 0  9996
2 43254  86.4026 353.9345 0001985  92.8249 267.3174 14.34218096284894
IRIDIUM 148             
1 43255U 18030G   23251.38199235  .00000367  00000+0  12382-3 0  9998
2 43255  86.4030 353.7431 0001858  95.0603 265.0805 14.34218518285012
IRIDIUM 142             
1 43256U 18030H   23250.37351269  .00000224  00000+0  73089-4 0  9998
2 43256  86.4026 354.0893 0002054  96.1688 263.9742 14.34216588284828
